EUTELSAT 65 WEST A      
1 41382U 16014A   17344.95918964 -.00000284  00000-0  00000+0 0  9994
2 41382   0.0517  27.0624 0001911 248.2086  84.7123  1.00270332  6465
